STARLINK-6337
1 56528U 23065AB  26090.83335647  .00080852  00000+0  54275-2 0  9995
2 56528  43.0001  89.5734 0001719 239.9612  17.0568 15.05860647  5769
STARLINK-6293
1 57354U 23099AC  26090.75850059  .00251643  00000+0  16379-1 0  9990
2 57354  43.0004 116.2563 0001234 342.7062  17.3739 15.06037780149589
STARLINK-30904
1 58364U 23177P   26090.69427309  .00039134  00000+0  26301-2 0  9996
2 58364  42.9999 229.6490 0005485 314.1463  45.8929 15.06129918131550
